C/2018 N2 (ASASSN),h,11/10.9688/2019,77.5285,25.2453,24.4031,1.000114,3.124790,2000,6.0,4.0
# From MPEC 2021-AJ0
C/2018 U1 (Lemmon),h,11/02.8470/2021,108.2984,75.4796,180.4324,1.001135,4.993429,2000,5.0,4.0
# From MPEC 2021-AJ0
C/2019 C1 (ATLAS),e,36.0247,212.3888,319.1867,752.9931,0.0000477,0.99125992,0.0000,05/05.5821/2020,2000,g 10.0,4.0
# From MPEC 2021-AJ0
C/2019 E3 (ATLAS),h,11/12.5632/2023,84.2921,347.2417,280.6113,1.003949,10.314920,2000,2.5,4.0
# From MPEC 2021-AJ0
C/2019 K7 (Smith),e,103.5420,307.9291,27.3083,129671,0.0000000,0.99996549,0.0000,06/16.9748/2020,2000,g  6.0,4.0
# From MPEC 2021-AJ0
C/2019 L3 (ATLAS),h,01/09.7348/2022,48.3660,290.7858,171.6333,1.000921,3.554178,2000,4.5,4.0
# From MPEC 2021-AJ0
C/2019 N1 (ATLAS),e,82.5456,13.4997,193.0786,60.13219,0.0021137,0.97178772,0.0000,12/01.1971/2020,2000,g  7.5,4.0
# From MPEC 2021-AJ0
A/2019 O2,e,93.2868,48.3179,129.6580,57.35240,0.0022692,0.83116619,358.1672,01/20.0/2021,2000,g  9.5,2.0
# From MPEC 2021-AJ0
A/2019 T1,e,120.8697,6.9538,91.0311,38.25271,0.0041659,0.88807122,0.0239,01/20.0/2021,2000,g 13.0,2.0
# From MPEC 2021-AJ0
C/2019 T3 (ATLAS),e,121.8624,139.5203,112.2721,3649,0.0000045,0.99837049,0.0000,03/02.6584/2021,2000,g  6.8,4.0
# From MPEC 2021-AJ0
C/2019 T4 (ATLAS),e,53.6183,199.9549,351.2163,1035,0.0000296,0.99590136,0.0000,06/09.2704/2022,2000,g  5.0,4.0
# From MPEC 2021-AJ0
C/2019 U6 (Lemmon),e,60.9994,235.6999,329.6596,421.6387,0.0001138,0.99783171,0.0000,06/18.8157/2020,2000,g 10.0,4.0
# From MPEC 2021-AJ0
C/2019 Y4 (ATLAS),e,45.3802,120.5696,177.4212,320.5331,0.0001717,0.99921082,0.0000,05/31.0214/2020,2000,g 11.8,6.0
# From MPEC 2021-AJ0
C/2020 F5 (MASTER),h,03/24.2327/2021,51.7048,350.6332,311.0630,1.003134,4.325964,2000,6.5,3.2
# From MPEC 2021-AJ0
C/2020 F6 (PANSTARRS),e,174.5820,207.8823,344.6078,400.5895,0.0001229,0.99123495,0.0000,04/11.6492/2020,2000,g 14.5,2.8
# From MPEC 2021-AJ0
C/2020 F6 (PANSTARRS),e,174.5820,207.8823,344.6078,400.5895,0.0001229,0.99123495,0.0000,04/11.6492/2020,2000,g 14.5,2.8
# From MPEC 2021-AJ0
A/2020 F7,e,93.9525,321.8865,227.9832,762.7697,0.0000468,0.99300981,0.0000,11/14.1001/2021,2000,g 12.0,2.0
# From MPEC 2021-AJ0
C/2020 H3 (Wierzchos),h,06/03.5546/2020,62.3671,270.5677,29.6081,1.001858,2.304462,2000,13.0,4.0
# From MPEC 2021-AJ0
C/2020 H5 (Robinson),e,70.2164,210.6362,326.1122,2200,0.0000096,0.99574977,0.0000,12/06.1755/2020,2000,g  5.0,4.0
# From MPEC 2021-AJ0
C/2020 H6 (ATLAS),h,10/01.0384/2021,79.9570,213.7058,20.3437,1.000858,4.702925,2000,8.0,3.2
# From MPEC 2021-AJ0
C/2020 K7 (PANSTARRS),e,32.0555,286.0981,358.1949,105.3320,0.0009117,0.93937417,0.4092,01/20.0/2021,2000,g  8.0,4.0
# From MPC 98560
P/2014 L2 (NEOWISE),e,5.1980,149.3488,182.6480,6.303680,0.0622749,0.64814902,148.0213,01/20.0/2021,2000,g 12.0,4.0
# From MPC 90769
P/2014 L3 (Hill),e,6.2776,115.4704,178.6424,8.167982,0.0422213,0.77385388,101.0962,01/20.0/2021,2000,g 16.0,4.0
# From MPC 91614
P/2014 M4 (PANSTARRS),e,3.3356,263.2665,147.9529,5.874522,0.0692222,0.59403023,153.5390,01/20.0/2021,2000,g 15.0,4.0
# From MPC103844
P/2014 MG4 (Spacewatch-PANSTARRS),e,9.3715,311.7339,299.0982,5.011935,0.0878407,0.25970460,243.5423,01/20.0/2021,2000,g  9.5,4.0
# From MPC 98560
P/2014 O3 (PANSTARRS),e,7.8067,87.6430,204.5972,7.563667,0.0473811,0.38616680,116.8473,01/20.0/2021,2000,g 10.5,4.0
# From MPEC 2020-AA5
C/2014 OE4 (PANSTARRS),h,12/12.8827/2016,81.3140,240.4148,65.8834,1.003066,6.249066,2000,11.0,2.0
# From MPC115880
C/2014 R3 (PANSTARRS),e,90.9217,334.0949,113.4460,12767,0.0000007,0.99943022,0.0000,08/08.9076/2016,2000,g  6.5,4.0
# From MPC 91615
P/2014 R5 (Lemmon-PANSTARRS),e,1.0883,126.5572,213.7251,4.056455,0.1206380,0.41359141,290.5087,01/20.0/2021,2000,g 15.0,4.0
# From MPC104790
C/2014 S2 (PANSTARRS),e,64.5189,8.1559,87.2969,169.6489,0.0004460,0.98773914,0.0000,12/09.0945/2015,2000,g 10.0,4.0
# From MPC 91616
P/2014 U4 (PANSTARRS),e,6.4290,11.8908,347.7367,3.506641,0.1500953,0.46498612,356.3223,01/20.0/2021,2000,g 18.0,4.0
# From MPC 95211
P/2014 V1 (PANSTARRS),e,22.5176,166.2014,177.5699,5.481275,0.0768036,0.53419913,168.0961,01/20.0/2021,2000,g 14.0,4.0
# From MPC 93586
P/2014 W1 (PANSTARRS),e,8.8383,246.2456,152.2417,4.461722,0.1045804,0.38868303,248.6981,01/20.0/2021,2000,g 15.5,4.0
# From MPC110493
C/2014 W2 (PANSTARRS),e,82.0666,69.9856,84.9377,561.9238,0.0000740,0.99524118,0.0000,03/07.9135/2016,2000,g  7.5,4.0
# From MPC105542
P/2014 W4 (PANSTARRS),e,15.2725,33.3557,67.8446,6.598944,0.0581423,0.35206336,107.4461,01/20.0/2021,2000,g 11.0,4.0
# From MPC115880
C/2014 W10 (PANSTARRS),e,82.8829,43.1021,43.6498,810.7794,0.0000427,0.99065855,0.0000,03/04.2735/2016,2000,g  8.0,4.0
# From MPC 93587
P/2014 W12 (Gibbs),e,8.5140,299.2900,36.8939,3.519176,0.1492941,0.52417505,337.5619,01/20.0/2021,2000,g 15.0,4.0
# From MPC 94281
P/2014 X1 (Elenin),e,26.0043,61.5069,33.9740,6.209781,0.0636927,0.70853742,140.8332,01/20.0/2021,2000,g 15.0,4.0
# From MPC100579
C/2014 Y1 (PANSTARRS),h,01/15.9140/2016,14.9068,19.5679,182.3213,1.001385,2.254077,2000,9.5,4.0
# From MPC 92275
P/2015 A3 (PANSTARRS),e,172.5297,277.1778,249.2458,7.807919,0.0451753,0.85132927,97.7160,01/20.0/2021,2000,g 20.0,4.0
# From MPC 99270
P/2015 B1 (PANSTARRS),e,18.0312,353.0133,188.8459,9.499408,0.0336635,0.36834328,65.7678,01/20.0/2021,2000,g  8.5,4.0
# From MPC108592
C/2015 B2 (PANSTARRS),e,104.9917,341.8495,284.7189,20930,0.0000003,0.99983895,0.0000,05/05.4466/2016,2000,g  9.5,4.0
# From MPC109141
P/2015 B4 (Lemmon-PANSTARRS),e,1.7599,266.0248,227.4728,8.532259,0.0395465,0.56024973,86.0793,01/20.0/2021,2000,g 11.0,4.0
# From MPC101096
P/2015 C1 (TOTAS-Gibbs),e,13.8915,348.8203,178.3233,6.584982,0.0583273,0.56026153,122.1671,01/20.0/2021,2000,g 12.5,4.0
# From MPC119995
C/2015 D3 (PANSTARRS),h,05/02.5071/2016,128.5487,157.0598,2.9580,1.003635,8.144267,2000,5.5,4.0
# From MPC109141
P/2015 D5 (Kowalski),e,20.5002,74.0599,39.8920,8.971210,0.0366799,0.48881304,91.2014,01/20.0/2021,2000,g  9.0,4.0
# From MPC 96866
P/2015 D6 (Lemmon-PANSTARRS),e,20.2021,46.0254,125.1869,7.145498,0.0516007,0.36193939,104.6142,01/20.0/2021,2000,g 10.5,4.0
# From MPC112390
C/2015 ER61 (PANSTARRS),e,6.3381,235.1553,68.3111,494.5827,0.0000896,0.99789087,0.0000,05/10.4713/2017,2000,g 11.0,2.0
# From MPEC 2018-BF5
C/2015 E61-B (PANSTARRS),e,6.3396,235.1904,68.4003,1398,0.0000188,0.99925284,0.0000,05/10.4489/2017,2000,g 13.5,2.0
# From MPC109142
P/2015 F1 (PANSTARRS),e,2.8025,40.3916,187.4618,3.522885,0.1490584,0.27804672,318.1820,01/20.0/2021,2000,g 12.5,4.0
# From MPC117068
C/2015 H2 (PANSTARRS),h,09/14.2419/2016,33.6542,350.6781,288.0998,1.005662,4.978304,2000,7.5,4.0
# From MPC100280
P/2015 HG16 (PANSTARRS),e,18.7990,58.8361,47.4049,4.748443,0.0952527,0.35124061,228.8706,01/20.0/2021,2000,g 12.5,4.0
# From MPC 95733
P/2015 J3 (NEOWISE),e,8.1309,111.3510,129.4532,3.348057,0.1608847,0.55435927,345.1740,01/20.0/2021,2000,g 16.5,4.0
# From MPC 95213
P/2015 K5 (PANSTARRS),e,39.9449,134.1758,106.3366,6.720653,0.0565701,0.55349342,116.2769,01/20.0/2021,2000,g 13.5,4.0
# From MPC107684
P/2015 M2 (PANSTARRS),e,3.9728,86.5832,225.4459,7.228812,0.0507112,0.18105532,99.3708,01/20.0/2021,2000,g  8.5,4.0
# From MPC112390
C/2015 O1 (PANSTARRS),h,02/19.6187/2018,127.2256,299.8517,89.6306,1.001115,3.729279,2000,6.5,4.0
# From MPC 99819
P/2015 P4 (PANSTARRS),e,8.7177,104.7604,280.5694,6.049605,0.0662390,0.58463608,121.0287,01/20.0/2021,2000,g 14.0,4.0
# From MPC102952
P/2015 PD229 (Cameron-ISON),e,2.0263,342.6332,352.4425,7.182242,0.0512052,0.32816131,101.6034,01/20.0/2021,2000,g 11.5,2.0
# From MPC 99819
P/2015 Q1 (Scotti),e,22.3830,202.9177,199.8400,3.473800,0.1522288,0.47827725,300.6889,01/20.0/2021,2000,g 14.0,4.0
# From MPC 96867
P/2015 Q2 (Pimentel),e,146.4938,228.4168,244.4834,7.347692,0.0494855,0.75084449,97.1473,01/20.0/2021,2000,g 15.5,4.0
# From MPC 98562
P/2015 R1 (PANSTARRS),e,22.6788,48.4316,300.4261,5.880424,0.0691180,0.63409681,140.5140,01/20.0/2021,2000,g 14.0,4.0
# From MPC 95734
P/2015 R2 (PANSTARRS),e,15.4796,168.6002,149.7547,4.488412,0.1036490,0.45285012,212.3414,01/20.0/2021,2000,g 14.5,4.0
# From MPC117068
C/2015 T2 (PANSTARRS),e,124.5514,51.0270,30.6559,1980,0.0000112,0.99649790,0.0000,05/18.4184/2017,2000,g  8.0,4.0
# From MPC 96280
P/2015 T3 (PANSTARRS),e,13.0937,120.5019,178.6330,4.326181,0.1095335,0.50818108,359.9227,12/21.0/2014,2000,g 14.0,4.0
# From MPC102953
C/2015 T4 (PANSTARRS),e,87.9953,251.8277,270.0710,79.74804,0.0013840,0.97116414,0.0000,06/16.8452/2016,2000,g 11.0,4.0
# From MPC102097
C/2015 T5 (Sheppard-Tholen),e,11.0503,311.0705,61.8521,28.16911,0.0065924,0.66867806,12.0193,01/20.0/2021,2000,g  7.5,4.0
# From MPC102953
P/2015 TO19 (Lemmon-PANSTARRS),e,6.4995,321.6515,89.1303,4.556109,0.1013475,0.35810963,180.5789,01/20.0/2021,2000,g 14.0,4.0
# From MPC110080
P/2015 TP200 (LINEAR),e,8.7770,6.9968,82.6168,7.275585,0.0502229,0.53495944,77.6401,01/20.0/2021,2000,g 11.0,4.0
# From MPC101097
C/2015 TQ209 (LINEAR),e,11.3033,223.3626,282.1553,582.0568,0.0000702,0.99756686,0.0000,08/25.3664/2016,2000,g 10.5,4.0
# From MPC115881
C/2015 V1 (PANSTARRS),e,139.2239,197.1847,179.6202,2374,0.0000085,0.99820134,0.0000,12/16.8683/2017,2000,g  6.5,4.0
# From MPC112390
C/2015 V2 (Johnson),h,06/11.8968/2017,49.8554,69.8982,165.0003,1.001866,1.644191,2000,5.0,4.0
# From MPC104791
C/2015 V4 (PANSTARRS),e,60.7853,179.9343,306.9774,18.47433,0.0124123,0.70442223,19.9310,01/20.0/2021,2000,g  8.5,4.0
# From MPC115881
C/2015 VL62 (Lemmon-Yeung-PANSTARRS),h,08/27.8830/2017,165.8168,95.1041,128.7958,1.001213,2.717906,2000,8.0,4.0
# From MPC102098
C/2015 WZ (PANSTARRS),e,134.6248,40.1885,66.7464,147.1220,0.0005523,0.99061347,0.0000,04/13.7388/2016,2000,g 15.0,4.0
# From MPC109142
C/2015 W1 (Gibbs),e,87.3619,114.3163,48.1688,2846,0.0000065,0.99921162,0.0000,05/13.7420/2016,2000,g 13.0,4.0
# From MPC101098
P/2015 W2 (Catalina),e,11.6070,294.2521,117.4994,7.296124,0.0500110,0.63387205,96.9384,01/20.0/2021,2000,g 13.0,4.0
# From MPC101098
